OBJECT_NAME,OBJECT_ID,EPOCH,MEAN_MOTION,ECCENTRICITY,INCLINATION,RA_OF_ASC_NODE,ARG_OF_PERICENTER,MEAN_ANOMALY,EPHEMERIS_TYPE,CLASSIFICATION_TYPE,NORAD_CAT_ID,ELEMENT_SET_NO,REV_AT_EPOCH,BSTAR,MEAN_MOTION_DOT,MEAN_MOTION_DDOT
ONEWEB-0500,2022-138F,2026-07-06T20:21:53.576928,13.19725603,.0002056,87.9191,301.0514,100.3677,259.7688,0,U,54118,999,17942,-.13157E-3,-.4E-6,0
ONEWEB-0501,2022-138G,2026-07-06T21:05:06.871200,13.19726329,.0001855,87.9190,301.0454,113.0048,247.1280,0,U,54119,999,17940,.32686E-3,.144E-5,0
ONEWEB-0502,2022-138H,2026-07-07T05:50:30.898752,13.19725525,.0001796,87.9193,300.9618,106.1129,254.0202,0,U,54120,999,17947,.99233E-5,.17E-6,0
ONEWEB-0503,2022-138J,2026-07-06T20:28:42.627360,13.19726435,.0001774,87.9195,301.0454,96.0465,264.0870,0,U,54121,999,17941,-.12226E-3,-.36E-6,0
ONEWEB-0504,2022-138K,2026-07-07T07:05:34.355328,13.19726059,.0001759,87.9195,300.9621,105.3441,254.7886,0,U,54122,999,17948,.29439E-4,.25E-6,0
ONEWEB-0505,2022-138L,2026-07-07T07:01:00.056928,13.19727334,.0001776,87.9190,300.9634,114.6021,245.5297,0,U,54123,999,17946,.1824E-4,.2E-6,0
ONEWEB-0506,2022-138M,2026-07-06T08:34:31.544256,13.19724759,.0001833,87.9192,301.1472,110.3616,249.7714,0,U,54124,999,17933,.12095409E-3,.61E-6,0
ONEWEB-0507,2022-138N,2026-07-07T06:54:11.817792,13.19725903,.0001953,87.9185,300.9720,107.2141,252.9205,0,U,54125,999,17950,-.62771E-5,.1E-6,0
ONEWEB-0508,2022-138P,2026-07-07T06:49:39.059904,13.19725730,.0002035,87.9185,300.9721,113.5422,246.5925,0,U,54126,999,17948,.93426E-4,.5E-6,0
ONEWEB-0509,2022-138Q,2026-07-07T06:13:14.093760,13.19724061,.0001916,87.9195,300.9691,104.9435,255.1910,0,U,54127,999,17945,.20663E-3,.96E-6,0
ONEWEB-0510,2022-138R,2026-07-07T04:58:52.072032,13.20770939,.0002163,87.9189,270.4468,88.0290,272.1091,0,U,54128,999,18192,-.64225E-3,-.248E-5,0
ONEWEB-0511,2022-138S,2026-07-07T06:08:40.819200,13.19727691,.0001665,87.9190,300.9717,99.7472,260.3849,0,U,54129,999,17948,.26211E-3,.118E-5,0
ONEWEB-0512,2022-138T,2026-07-07T05:57:19.359072,13.19726808,.0001729,87.9183,300.9767,108.7324,251.3997,0,U,54130,999,17945,.14603E-3,.71E-6,0
ONEWEB-0513,2022-138U,2026-07-06T20:47:52.429920,13.20269593,.000118,87.9190,300.9944,120.7260,239.3990,0,U,54131,999,17931,.13E-3,.65E-6,0
ONEWEB-0514,2022-138V,2026-07-07T06:20:04.550784,13.19726151,.0001985,87.9192,300.9695,96.8407,263.2952,0,U,54132,999,17947,.21998E-3,.101E-5,0
ONEWEB-0515,2022-138W,2026-07-06T15:55:53.145120,13.20771135,.0002907,87.9198,270.5504,94.6004,265.5462,0,U,54133,999,18187,.51649E-4,.34E-6,0
ONEWEB-0516,2022-138X,2026-07-07T07:32:50.375616,13.19727225,.0002062,87.9185,300.9636,104.7552,255.3809,0,U,54134,999,17948,.20587E-3,.95E-6,0
ONEWEB-0517,2022-138Y,2026-07-07T07:03:17.685216,13.19725805,.0001722,87.9193,300.9614,94.5093,265.6236,0,U,54135,999,17948,.48271E-4,.32E-6,0
ONEWEB-0518,2022-138Z,2026-07-06T20:35:30.432768,13.19723663,.0002134,87.9185,301.0567,103.4993,256.6377,0,U,54136,999,17942,.15929E-4,.19E-6,0
ONEWEB-0519,2022-138AA,2026-07-07T06:17:46.832640,13.19727342,.0001796,87.9189,300.9694,95.9201,264.2136,0,U,54137,999,17948,.31494E-3,.139E-5,0
ONEWEB-0520,2022-138AB,2026-07-07T07:07:50.780064,13.19726237,.000192,87.9193,300.9622,109.1602,250.9738,0,U,54138,999,17947,.35458E-4,.27E-6,0
ONEWEB-0521,2022-138AC,2026-07-06T21:00:32.253120,13.19726482,.0001846,87.9194,301.0353,94.5977,265.5366,0,U,54139,999,17936,.1098E-3,.57E-6,0
ONEWEB-0522,2022-138AD,2026-07-06T20:30:59.256864,13.19725977,.0001864,87.9196,301.0419,104.2040,255.9300,0,U,54140,999,17940,-.64035E-5,.1E-6,0
ONEWEB-0523,2022-138AE,2026-07-07T04:20:06.108000,13.20772237,.0002527,87.9194,270.4573,83.2893,276.8527,0,U,54141,999,18194,.19233E-3,.91E-6,0
ONEWEB-0524,2022-138AF,2026-07-07T13:11:00.621600,13.20772546,.0002939,87.9193,270.3804,98.4682,261.6784,0,U,54142,999,18199,.13659E-3,.69E-6,0
ONEWEB-0525,2022-138AG,2026-07-07T06:04:08.147712,13.19727046,.0002011,87.9192,300.9696,111.6595,248.4752,0,U,54143,999,17947,.20121E-3,.94E-6,0
ONEWEB-0526,2022-138AH,2026-07-07T12:19:25.340736,13.19725003,.0002065,87.9193,300.9187,105.2218,254.9143,0,U,54144,999,17948,-.57962E-3,-.219E-5,0
ONEWEB-0529,2022-138AJ,2026-07-06T20:01:25.007808,13.19725589,.0001933,87.9187,301.0614,107.3399,252.7945,0,U,54145,999,17941,.80733E-5,.16E-6,0
ONEWEB-0531,2022-138AK,2026-07-07T05:35:15.049248,13.20773552,.0002772,87.9190,270.4406,86.7235,273.4215,0,U,54146,999,18195,.12357E-3,.63E-6,0
ONEWEB-0535,2022-138AL,2026-07-06T20:49:09.712128,13.19726603,.0002034,87.9193,301.0403,91.0444,269.0921,0,U,54147,999,17943,.65625E-4,.39E-6,0
ONEWEB-0536,2022-138AM,2026-07-06T16:32:13.737696,13.20773057,.0002944,87.9181,270.5693,88.5818,271.5652,0,U,54148,999,18187,-.11075E-3,-.32E-6,0
