ONEWEB-0500             
1 54118U 22138F   26187.84853677 -.00000040  00000+0 -13157-3 0  9992
2 54118  87.9191 301.0514 0002056 100.3677 259.7688 13.19725603179422
ONEWEB-0501             
1 54119U 22138G   26187.87855175  .00000144  00000+0  32686-3 0  9992
2 54119  87.9190 301.0454 0001855 113.0048 247.1280 13.19726329179407
ONEWEB-0502             
1 54120U 22138H   26188.24341318  .00000017  00000+0  99233-5 0  9997
2 54120  87.9193 300.9618 0001796 106.1129 254.0202 13.19725525179474
ONEWEB-0503             
1 54121U 22138J   26187.85327115 -.00000036  00000+0 -12226-3 0  9991
2 54121  87.9195 301.0454 0001774  96.0465 264.0870 13.19726435179410
ONEWEB-0504             
1 54122U 22138K   26188.29553652  .00000025  00000+0  29439-4 0  9999
2 54122  87.9195 300.9621 0001759 105.3441 254.7886 13.19726059179488
ONEWEB-0505             
1 54123U 22138L   26188.29236177  .00000020  00000+0  18240-4 0  9993
2 54123  87.9190 300.9634 0001776 114.6021 245.5297 13.19727334179463
ONEWEB-0506             
1 54124U 22138M   26187.35730954  .00000061  00000+0  12095-3 0  9998
2 54124  87.9192 301.1472 0001833 110.3616 249.7714 13.19724759179330
ONEWEB-0507             
1 54125U 22138N   26188.28763678  .00000010  00000+0 -62771-5 0  9994
2 54125  87.9185 300.9720 0001953 107.2141 252.9205 13.19725903179509
ONEWEB-0508             
1 54126U 22138P   26188.28447986  .00000050  00000+0  93426-4 0  9999
2 54126  87.9185 300.9721 0002035 113.5422 246.5925 13.19725730179488
ONEWEB-0509             
1 54127U 22138Q   26188.25919090  .00000096  00000+0  20663-3 0  9999
2 54127  87.9195 300.9691 0001916 104.9435 255.1910 13.19724061179454
ONEWEB-0510             
1 54128U 22138R   26188.20754713 -.00000248  00000+0 -64225-3 0  9997
2 54128  87.9189 270.4468 0002163  88.0290 272.1091 13.20770939181928
ONEWEB-0511             
1 54129U 22138S   26188.25602800  .00000118  00000+0  26211-3 0  9999
2 54129  87.9190 300.9717 0001665  99.7472 260.3849 13.19727691179487
ONEWEB-0512             
1 54130U 22138T   26188.24814073  .00000071  00000+0  14603-3 0  9997
2 54130  87.9183 300.9767 0001729 108.7324 251.3997 13.19726808179454
ONEWEB-0513             
1 54131U 22138U   26187.86657905  .00000065  00000+0  13000-3 0  9997
2 54131  87.9190 300.9944 0001180 120.7260 239.3990 13.20269593179313
ONEWEB-0514             
1 54132U 22138V   26188.26394156  .00000101  00000+0  21998-3 0  9995
2 54132  87.9192 300.9695 0001985  96.8407 263.2952 13.19726151179475
ONEWEB-0515             
1 54133U 22138W   26187.66380955  .00000034  00000+0  51649-4 0  9993
2 54133  87.9198 270.5504 0002907  94.6004 265.5462 13.20771135181879
ONEWEB-0516             
1 54134U 22138X   26188.31447194  .00000095  00000+0  20587-3 0  9999
2 54134  87.9185 300.9636 0002062 104.7552 255.3809 13.19727225179488
ONEWEB-0517             
1 54135U 22138Y   26188.29395469  .00000032  00000+0  48271-4 0  9996
2 54135  87.9193 300.9614 0001722  94.5093 265.6236 13.19725805179482
ONEWEB-0518             
1 54136U 22138Z   26187.85799112  .00000019  00000+0  15929-4 0  9990
2 54136  87.9185 301.0567 0002134 103.4993 256.6377 13.19723663179420
ONEWEB-0519             
1 54137U 22138AA  26188.26234760  .00000139  00000+0  31494-3 0  9997
2 54137  87.9189 300.9694 0001796  95.9201 264.2136 13.19727342179486
ONEWEB-0520             
1 54138U 22138AB  26188.29711551  .00000027  00000+0  35458-4 0  9990
2 54138  87.9193 300.9622 0001920 109.1602 250.9738 13.19726237179476
ONEWEB-0521             
1 54139U 22138AC  26187.87537330  .00000057  00000+0  10980-3 0  9990
2 54139  87.9194 301.0353 0001846  94.5977 265.5366 13.19726482179369
ONEWEB-0522             
1 54140U 22138AD  26187.85485251  .00000010  00000+0 -64035-5 0  9996
2 54140  87.9196 301.0419 0001864 104.2040 255.9300 13.19725977179400
ONEWEB-0523             
1 54141U 22138AE  26188.18062625  .00000091  00000+0  19233-3 0  9996
2 54141  87.9194 270.4573 0002527  83.2893 276.8527 13.20772237181946
ONEWEB-0524             
1 54142U 22138AF  26188.54931275  .00000069  00000+0  13659-3 0  9994
2 54142  87.9193 270.3804 0002939  98.4682 261.6784 13.20772546181998
ONEWEB-0525             
1 54143U 22138AG  26188.25287208  .00000094  00000+0  20121-3 0  9993
2 54143  87.9192 300.9696 0002011 111.6595 248.4752 13.19727046179470
ONEWEB-0526             
1 54144U 22138AH  26188.51348774 -.00000219  00000+0 -57962-3 0  9993
2 54144  87.9193 300.9187 0002065 105.2218 254.9143 13.19725003179485
ONEWEB-0529             
1 54145U 22138AJ  26187.83431722  .00000016  00000+0  80733-5 0  9991
2 54145  87.9187 301.0614 0001933 107.3399 252.7945 13.19725589179410
ONEWEB-0531             
1 54146U 22138AK  26188.23281307  .00000063  00000+0  12357-3 0  9996
2 54146  87.9190 270.4406 0002772  86.7235 273.4215 13.20773552181951
ONEWEB-0535             
1 54147U 22138AL  26187.86747352  .00000039  00000+0  65625-4 0  9992
2 54147  87.9193 301.0403 0002034  91.0444 269.0921 13.19726603179433
ONEWEB-0536             
1 54148U 22138AM  26187.68904789 -.00000032  00000+0 -11075-3 0  9996
2 54148  87.9181 270.5693 0002944  88.5818 271.5652 13.20773057181875
